{
    "links": {
        "self": "http://www.neowsapp.com/rest/v1/neo/54075589?api_key=iIulBulltgU6a56xZRHN4H3l9WmuAYTsLGpBGhQ2"
    },
    "id": "54075589",
    "neo_reference_id": "54075589",
    "name": "(2020 UT2)",
    "designation": "2020 UT2",
    "nasa_jpl_url": "http://ssd.jpl.nasa.gov/sbdb.cgi?sstr=54075589",
    "absolute_magnitude_h": 25.746,
    "estimated_diameter": {
        "kilometers": {
            "estimated_diameter_min": 0.0188518935,
            "estimated_diameter_max": 0.0421541153
        },
        "meters": {
            "estimated_diameter_min": 18.8518934554,
            "estimated_diameter_max": 42.1541152708
        },
        "miles": {
            "estimated_diameter_min": 0.0117140199,
            "estimated_diameter_max": 0.0261933448
        },
        "feet": {
            "estimated_diameter_min": 61.8500461241,
            "estimated_diameter_max": 138.3009075451
        }
    },
    "is_potentially_hazardous_asteroid": false,
    "close_approach_data": [
        {
            "close_approach_date": "2018-07-09",
            "close_approach_date_full": "2018-Jul-09 18:07",
            "epoch_date_close_approach": 1531159620000,
            "relative_velocity": {
                "kilometers_per_second": "15.9921867155",
                "kilometers_per_hour": "57571.8721759109",
                "miles_per_hour": "35772.9224639708"
            },
            "miss_distance": {
                "astronomical": "0.3304633455",
                "lunar": "128.5502413995",
                "kilometers": "49436612.599874085",
                "miles": "30718486.634408973"
            },
            "orbiting_body": "Earth"
        },
        {
            "close_approach_date": "2020-10-18",
            "close_approach_date_full": "2020-Oct-18 03:16",
            "epoch_date_close_approach": 1602990960000,
            "relative_velocity": {
                "kilometers_per_second": "10.086904052",
                "kilometers_per_hour": "36312.8545870387",
                "miles_per_hour": "22563.3956738186"
            },
            "miss_distance": {
                "astronomical": "0.0268801432",
                "lunar": "10.4563757048",
                "kilometers": "4021212.168014984",
                "miles": "2498665.3765514192"
            },
            "orbiting_body": "Earth"
        }
    ],
    "orbital_data": {
        "orbit_id": "3",
        "orbit_determination_date": "2020-10-24 07:47:36",
        "first_observation_date": "2020-10-19",
        "last_observation_date": "2020-10-23",
        "data_arc_in_days": 4,
        "observations_used": 43,
        "orbit_uncertainty": "7",
        "minimum_orbit_intersection": ".0144124",
        "jupiter_tisserand_invariant": "4.189",
        "epoch_osculation": "2459000.5",
        "eccentricity": ".4133935217766311",
        "semi_major_axis": "1.634068330426631",
        "inclination": "9.951253299012755",
        "ascending_node_longitude": "25.40702202647221",
        "orbital_period": "762.9634729598648",
        "perihelion_distance": ".9585550684879064",
        "perihelion_argument": "323.4042978219248",
        "aphelion_distance": "2.309581592365356",
        "perihelion_time": "2459111.671870204581",
        "mean_anomaly": "307.5441817438689",
        "mean_motion": ".4718443447933418",
        "equinox": "J2000",
        "orbit_class": {
            "orbit_class_type": "APO",
            "orbit_class_description": "Near-Earth asteroid orbits which cross the Earth’s orbit similar to that of 1862 Apollo",
            "orbit_class_range": "a (semi-major axis) > 1.0 AU; q (perihelion) < 1.017 AU"
        }
    },
    "is_sentry_object": false
}